{
    "links": {
        "self": "http://www.neowsapp.com/rest/v1/neo/54016819?api_key=iIulBulltgU6a56xZRHN4H3l9WmuAYTsLGpBGhQ2"
    },
    "id": "54016819",
    "neo_reference_id": "54016819",
    "name": "(2020 HT8)",
    "designation": "2020 HT8",
    "nasa_jpl_url": "http://ssd.jpl.nasa.gov/sbdb.cgi?sstr=54016819",
    "absolute_magnitude_h": 28.317,
    "estimated_diameter": {
        "kilometers": {
            "estimated_diameter_min": 0.0057697232,
            "estimated_diameter_max": 0.0129014932
        },
        "meters": {
            "estimated_diameter_min": 5.769723174,
            "estimated_diameter_max": 12.9014932284
        },
        "miles": {
            "estimated_diameter_min": 0.0035851387,
            "estimated_diameter_max": 0.0080166137
        },
        "feet": {
            "estimated_diameter_min": 18.9295385782,
            "estimated_diameter_max": 42.3277350435
        }
    },
    "is_potentially_hazardous_asteroid": false,
    "close_approach_data": [
        {
            "close_approach_date": "2014-11-03",
            "close_approach_date_full": "2014-Nov-03 06:26",
            "epoch_date_close_approach": 1414995960000,
            "relative_velocity": {
                "kilometers_per_second": "29.254178813",
                "kilometers_per_hour": "105315.0437268821",
                "miles_per_hour": "65438.6725868507"
            },
            "miss_distance": {
                "astronomical": "0.3762285273",
                "lunar": "146.3528971197",
                "kilometers": "56282986.317316851",
                "miles": "34972625.9953645038"
            },
            "orbiting_body": "Earth"
        },
        {
            "close_approach_date": "2020-04-26",
            "close_approach_date_full": "2020-Apr-26 09:35",
            "epoch_date_close_approach": 1587893700000,
            "relative_velocity": {
                "kilometers_per_second": "19.371779549",
                "kilometers_per_hour": "69738.4063762423",
                "miles_per_hour": "43332.7336730601"
            },
            "miss_distance": {
                "astronomical": "0.0029001175",
                "lunar": "1.1281457075",
                "kilometers": "433851.400749725",
                "miles": "269582.759707205"
            },
            "orbiting_body": "Moon"
        },
        {
            "close_approach_date": "2020-04-26",
            "close_approach_date_full": "2020-Apr-26 13:33",
            "epoch_date_close_approach": 1587907980000,
            "relative_velocity": {
                "kilometers_per_second": "19.9878679286",
                "kilometers_per_hour": "71956.3245431396",
                "miles_per_hour": "44710.861769597"
            },
            "miss_distance": {
                "astronomical": "0.0009860883",
                "lunar": "0.3835883487",
                "kilometers": "147516.709311921",
                "miles": "91662.6327136698"
            },
            "orbiting_body": "Earth"
        },
        {
            "close_approach_date": "2025-05-08",
            "close_approach_date_full": "2025-May-08 03:02",
            "epoch_date_close_approach": 1746673320000,
            "relative_velocity": {
                "kilometers_per_second": "25.184002857",
                "kilometers_per_hour": "90662.4102851788",
                "miles_per_hour": "56334.0959908101"
            },
            "miss_distance": {
                "astronomical": "0.2065379337",
                "lunar": "80.3432562093",
                "kilometers": "30897634.955721219",
                "miles": "19198900.0966580622"
            },
            "orbiting_body": "Earth"
        }
    ],
    "orbital_data": {
        "orbit_id": "1",
        "orbit_determination_date": "2020-04-29 05:12:34",
        "first_observation_date": "2020-04-27",
        "last_observation_date": "2020-04-29",
        "data_arc_in_days": 2,
        "observations_used": 18,
        "orbit_uncertainty": "7",
        "minimum_orbit_intersection": ".000583361",
        "jupiter_tisserand_invariant": "3.689",
        "epoch_osculation": "2459000.5",
        "eccentricity": ".6216300410151027",
        "semi_major_axis": "1.849771370077961",
        "inclination": "20.38621476242504",
        "ascending_node_longitude": "216.6222585598014",
        "orbital_period": "918.9153513644609",
        "perihelion_distance": ".6998979174278352",
        "perihelion_argument": "281.7260985629485",
        "aphelion_distance": "2.999644822728086",
        "perihelion_time": "2458918.504499019028",
        "mean_anomaly": "32.12306803811595",
        "mean_motion": ".391766226851527",
        "equinox": "J2000",
        "orbit_class": {
            "orbit_class_type": "APO",
            "orbit_class_description": "Near-Earth asteroid orbits which cross the Earth’s orbit similar to that of 1862 Apollo",
            "orbit_class_range": "a (semi-major axis) > 1.0 AU; q (perihelion) < 1.017 AU"
        }
    },
    "is_sentry_object": false
}